{
  "type": "FeatureCollection",
  "features": [
    {
      "type": "Feature",
      "properties": {
        "norad_id": 41890,
        "name": "CYGFM07",
        "group": "weather",
        "lat": -34.64915806008019,
        "lon": -24.206266882057236,
        "alt_km": 421.90227233063797,
        "timestamp": "2025-12-07T05:38:09.551252+00:00",
        "meta_object_name": "CYGFM07",
        "meta_object_id": "2016-078G",
        "meta_epoch": "2025-12-06T14:31:58.960128",
        "meta_mean_motion": 15.49635518,
        "meta_eccentricity": 0.00092233,
        "meta_inclination": 34.9481,
        "meta_ra_of_asc_node": 61.6609,
        "meta_arg_of_pericenter": 160.7733,
        "meta_mean_anomaly": 199.3339,
        "meta_ephemeris_type": 0,
        "meta_classification_type": "U",
        "meta_norad_cat_id": 41890,
        "meta_element_set_no": 999,
        "meta_rev_at_epoch": 49900,
        "meta_bstar": 0.00058150134,
        "meta_mean_motion_dot": 0.00033332,
        "meta_mean_motion_ddot": 0,
        "tle_line1": "1 41890U 16078G   25340.60554352  .00033332  00000+0  58150-3 0  9993",
        "tle_line2": "2 41890  34.9481  61.6609 0009223 160.7733 199.3339 15.49635518499000"
      },
      "geometry": {
        "type": "Point",
        "coordinates": [
          -24.206266882057236,
          -34.64915806008019
        ]
      }
    },
    {
      "type": "Feature",
      "properties": {
        "norad_id": 41891,
        "name": "CYGFM03",
        "group": "weather",
        "lat": 31.711204940630665,
        "lon": 177.21121689064105,
        "alt_km": 407.6070581829499,
        "timestamp": "2025-12-07T05:38:09.551263+00:00",
        "meta_object_name": "CYGFM03",
        "meta_object_id": "2016-078H",
        "meta_epoch": "2025-12-06T13:41:14.602560",
        "meta_mean_motion": 15.49535042,
        "meta_eccentricity": 0.00084934,
        "meta_inclination": 34.9434,
        "meta_ra_of_asc_node": 63.8068,
        "meta_arg_of_pericenter": 146.9636,
        "meta_mean_anomaly": 213.1617,
        "meta_ephemeris_type": 0,
        "meta_classification_type": "U",
        "meta_norad_cat_id": 41891,
        "meta_element_set_no": 999,
        "meta_rev_at_epoch": 49897,
        "meta_bstar": 0.0005693164,
        "meta_mean_motion_dot": 0.00032505,
        "meta_mean_motion_ddot": 0,
        "tle_line1": "1 41891U 16078H   25340.57030790  .00032505  00000+0  56932-3 0  9992",
        "tle_line2": "2 41891  34.9434  63.8068 0008493 146.9636 213.1617 15.49535042498978"
      },
      "geometry": {
        "type": "Point",
        "coordinates": [
          177.21121689064105,
          31.711204940630665
        ]
      }
    },
    {
      "type": "Feature",
      "properties": {
        "norad_id": 43010,
        "name": "FENGYUN 3D",
        "group": "weather",
        "lat": -31.167628638158444,
        "lon": -47.04351527152442,
        "alt_km": 832.7116070239763,
        "timestamp": "2025-12-07T05:38:09.551274+00:00",
        "meta_object_name": "FENGYUN 3D",
        "meta_object_id": "2017-072A",
        "meta_epoch": "2025-12-06T14:33:40.849920",
        "meta_mean_motion": 14.19681187,
        "meta_eccentricity": 7.275e-05,
        "meta_inclination": 98.9886,
        "meta_ra_of_asc_node": 306.8254,
        "meta_arg_of_pericenter": 202.5017,
        "meta_mean_anomaly": 157.6127,
        "meta_ephemeris_type": 0,
        "meta_classification_type": "U",
        "meta_norad_cat_id": 43010,
        "meta_element_set_no": 999,
        "meta_rev_at_epoch": 41766,
        "meta_bstar": 0.00012580883,
        "meta_mean_motion_dot": 2.2e-06,
        "meta_mean_motion_ddot": 0,
        "tle_line1": "1 43010U 17072A   25340.60672280  .00000220  00000+0  12581-3 0  9993",
        "tle_line2": "2 43010  98.9886 306.8254 0000727 202.5017 157.6127 14.19681187417668"
      },
      "geometry": {
        "type": "Point",
        "coordinates": [
          -47.04351527152442,
          -31.167628638158444
        ]
      }
    },
    {
      "type": "Feature",
      "properties": {
        "norad_id": 43013,
        "name": "NOAA 20 (JPSS-1)",
        "group": "weather",
        "lat": 54.879306646759936,
        "lon": 110.2539166846249,
        "alt_km": 820.4028562656058,
        "timestamp": "2025-12-07T05:38:09.551285+00:00",
        "meta_object_name": "NOAA 20 (JPSS-1)",
        "meta_object_id": "2017-073A",
        "meta_epoch": "2025-12-06T13:49:43.261824",
        "meta_mean_motion": 14.19523173,
        "meta_eccentricity": 0.00021046,
        "meta_inclination": 98.759,
        "meta_ra_of_asc_node": 276.9407,
        "meta_arg_of_pericenter": 96.0107,
        "meta_mean_anomaly": 264.1309,
        "meta_ephemeris_type": 0,
        "meta_classification_type": "U",
        "meta_norad_cat_id": 43013,
        "meta_element_set_no": 999,
        "meta_rev_at_epoch": 41714,
        "meta_bstar": 0.00011357534,
        "meta_mean_motion_dot": 1.95e-06,
        "meta_mean_motion_ddot": 0,
        "tle_line1": "1 43013U 17073A   25340.57619516  .00000195  00000+0  11358-3 0  9998",
        "tle_line2": "2 43013  98.7590 276.9407 0002104  96.0107 264.1309 14.19523173417144"
      },
      "geometry": {
        "type": "Point",
        "coordinates": [
          110.2539166846249,
          54.879306646759936
        ]
      }
    },
    {
      "type": "Feature",
      "properties": {
        "norad_id": 43226,
        "name": "GOES 17",
        "group": "weather",
        "lat": -0.11110913675359797,
        "lon": 71.30914720934767,
        "alt_km": 35800.2495609772,
        "timestamp": "2025-12-07T05:38:09.551297+00:00",
        "meta_object_name": "GOES 17",
        "meta_object_id": "2018-022A",
        "meta_epoch": "2025-12-06T11:01:48.078336",
        "meta_mean_motion": 1.00270924,
        "meta_eccentricity": 0.00035204,
        "meta_inclination": 0.4428,
        "meta_ra_of_asc_node": 89.2402,
        "meta_arg_of_pericenter": 183.7005,
        "meta_mean_anomaly": 238.5103,
        "meta_ephemeris_type": 0,
        "meta_classification_type": "U",
        "meta_norad_cat_id": 43226,
        "meta_element_set_no": 999,
        "meta_rev_at_epoch": 2849,
        "meta_bstar": 0,
        "meta_mean_motion_dot": -1.75e-06,
        "meta_mean_motion_ddot": 0,
        "tle_line1": "1 43226U 18022A   25340.45958424 -.00000175  00000+0  00000+0 0  9997",
        "tle_line2": "2 43226   0.4428  89.2402 0003520 183.7005 238.5103  1.00270924 28496"
      },
      "geometry": {
        "type": "Point",
        "coordinates": [
          71.30914720934767,
          -0.11110913675359797
        ]
      }
    },
    {
      "type": "Feature",
      "properties": {
        "norad_id": 43491,
        "name": "FENGYUN 2H",
        "group": "weather",
        "lat": 0.8935181362977025,
        "lon": -119.82583080950727,
        "alt_km": 35773.81993915257,
        "timestamp": "2025-12-07T05:38:09.551309+00:00",
        "meta_object_name": "FENGYUN 2H",
        "meta_object_id": "2018-050A",
        "meta_epoch": "2025-12-06T12:19:49.749600",
        "meta_mean_motion": 1.00271271,
        "meta_eccentricity": 0.00029244,
        "meta_inclination": 2.534,
        "meta_ra_of_asc_node": 81.3977,
        "meta_arg_of_pericenter": 164.9848,
        "meta_mean_anomaly": 93.489,
        "meta_ephemeris_type": 0,
        "meta_classification_type": "U",
        "meta_norad_cat_id": 43491,
        "meta_element_set_no": 999,
        "meta_rev_at_epoch": 2750,
        "meta_bstar": 0,
        "meta_mean_motion_dot": -1.24e-06,
        "meta_mean_motion_ddot": 0,
        "tle_line1": "1 43491U 18050A   25340.51377025 -.00000124  00000+0  00000+0 0  9995",
        "tle_line2": "2 43491   2.5340  81.3977 0002924 164.9848  93.4890  1.00271271 27507"
      },
      "geometry": {
        "type": "Point",
        "coordinates": [
          -119.82583080950727,
          0.8935181362977025
        ]
      }
    },
    {
      "type": "Feature",
      "properties": {
        "norad_id": 43689,
        "name": "METOP-C",
        "group": "weather",
        "lat": -45.43710150187407,
        "lon": -149.84915748292167,
        "alt_km": 828.0941213303349,
        "timestamp": "2025-12-07T05:38:09.551320+00:00",
        "meta_object_name": "METOP-C",
        "meta_object_id": "2018-087A",
        "meta_epoch": "2025-12-06T15:03:41.609088",
        "meta_mean_motion": 14.21508404,
        "meta_eccentricity": 0.00015908,
        "meta_inclination": 98.6938,
        "meta_ra_of_asc_node": 38.4906,
        "meta_arg_of_pericenter": 52.6105,
        "meta_mean_anomaly": 307.5217,
        "meta_ephemeris_type": 0,
        "meta_classification_type": "U",
        "meta_norad_cat_id": 43689,
        "meta_element_set_no": 999,
        "meta_rev_at_epoch": 36747,
        "meta_bstar": 0.00015448752,
        "meta_mean_motion_dot": 2.94e-06,
        "meta_mean_motion_ddot": 0,
        "tle_line1": "1 43689U 18087A   25340.62756492  .00000294  00000+0  15449-3 0  9999",
        "tle_line2": "2 43689  98.6938  38.4906 0001590  52.6105 307.5217 14.21508404367470"
      },
      "geometry": {
        "type": "Point",
        "coordinates": [
          -149.84915748292167,
          -45.43710150187407
        ]
      }
    }
  ]
}